STARLINK-30712
1 57935U 23148A   25331.73314517  .00000580  00000+0  31717-4 0  9997
2 57935  53.1599 137.7737 0001213  88.2962 271.8178 15.30190713122818